1 43180U 18014A   24103.57373266  .00004087  00000-0  18219-3 0  9992
2 43180  97.4008  12.3541 0001810  85.4415 274.7028 15.21976246343653
1 43180U 18014A   24103.50798650  .00004068  00000-0  18134-3 0  9998
2 43180  97.4008  12.2894 0001811  85.2679 274.8764 15.21975688343640
1 43180U 18014A   24103.17925536  .00003707  00000-0  16554-3 0  9999
2 43180  97.4010  11.9660 0001805  84.9675 275.1767 15.21972518343595
1 43180U 18014A   24102.91627002  .00003555  00000-0  15889-3 0  9998
2 43180  97.4010  11.7074 0001796  84.5608 275.5833 15.21970117343550
1 43180U 18014A   24102.85052359  .00003547  00000-0  15852-3 0  9999
2 43180  97.4010  11.6427 0001795  84.4918 275.6523 15.21969671343542
1 43180U 18014A   24102.58753776  .00003675  00000-0  16417-3 0  9990
2 43180  97.4011  11.3839 0001793  84.7001 275.4439 15.21967785343505
1 43180U 18014A   24102.52179127  .00003675  00000-0  16415-3 0  9994
2 43180  97.4011  11.3193 0001796  84.4409 275.7032 15.21967257343494
1 43180U 18014A   24102.19305850  .00003471  00000-0  15522-3 0  9993
2 43180  97.4013  10.9958 0001806  84.4691 275.6751 15.21964151343447
1 43180U 18014A   24101.93007143  .00003541  00000-0  15822-3 0  9999
2 43180  97.4012  10.7358 0001698  80.7064 279.4364 15.21978471343408
1 43180U 18014A   24101.66708659  .00003519  00000-0  15717-3 0  9997
2 43180  97.4012  10.4784 0001786  89.6990 270.4451 15.22001999343368
1 43180U 18014A   24101.53559652  .00003561  00000-0  15899-3 0  9998
2 43180  97.4015  10.3489 0001771  89.6488 270.4951 15.22000818343340
1 43180U 18014A   24101.07538482  .00003992  00000-0  17767-3 0  9999
2 43180  97.4016   9.8962 0001904  85.3919 274.7535 15.22039992343272
1 43180U 18014A   24100.87815452  .00004017  00000-0  17866-3 0  9990
2 43180  97.4015   9.7015 0001879  88.0616 272.0835 15.22058911343247
1 43180U 18014A   24100.68092598  .00004084  00000-0  18149-3 0  9996
2 43180  97.4014   9.5083 0001889  89.4570 270.6883 15.22079164343211
1 43180U 18014A   24099.89203251  .00003929  00000-0  17446-3 0  9992
2 43180  97.4020   8.7313 0002028  88.0284 272.1184 15.22135114343093
1 43180U 18014A   24099.89203251  .00003929  00000-0  17446-3 0  9992
2 43180  97.4020   8.7313 0002028  88.0284 272.1184 15.22135114343093
1 43180U 18014A   24099.76055403  .00004088  00000-0  18138-3 0  9998
2 43180  97.4018   8.6027 0002023  83.7990 276.3477 15.22134636343079
1 43180U 18014A   24099.56333586  .00004047  00000-0  17951-3 0  9994
2 43180  97.4021   8.4080 0001936  87.2902 272.8556 15.22153766343045
1 43180U 18014A   24099.10316929  .00003935  00000-0  17442-3 0  9996
2 43180  97.4021   7.9550 0001929  85.6302 274.5154 15.22192309342979
1 43180U 18014A   24098.90595798  .00003583  00000-0  15899-3 0  9999
2 43180  97.4020   7.7598 0001810  84.0208 276.1234 15.22211554342943
1 43180U 18014A   24098.84022188  .00003569  00000-0  15838-3 0  9997
2 43180  97.4019   7.6954 0001884  85.9477 274.1975 15.22211560342931
1 43180U 18014A   24098.57727764  .00003605  00000-0  15985-3 0  9993
2 43180  97.4021   7.4371 0001838  90.9649 269.1798 15.22229719342898
1 43180U 18014A   24098.51154250  .00003593  00000-0  15934-3 0  9991
2 43180  97.4021   7.3731 0001831  89.1063 271.0383 15.22229159342889
1 43180U 18014A   24097.72273280  .00003530  00000-0  15623-3 0  9994
2 43180  97.4019   6.5961 0001861  89.7828 270.3621 15.22307943342762
1 43180U 18014A   24097.72273280  .00003530  00000-0  15623-3 0  9994
2 43180  97.4019   6.5961 0001861  89.7828 270.3621 15.22307943342762
1 43180U 18014A   24097.52553726  .00003603  00000-0  15941-3 0  9992
2 43180  97.4019   6.4020 0001849  89.4080 270.7368 15.22306528342737
1 43180U 18014A   24097.52553726  .00003603  00000-0  15941-3 0  9992
2 43180  97.4019   6.4020 0001849  89.4080 270.7368 15.22306528342737
1 43180U 18014A   24097.19687765  .00003515  00000-0  15563-3 0  9998
2 43180  97.4019   6.0784 0001851  89.3941 270.7508 15.22303902342681
1 43180U 18014A   24096.93394957  .00003394  00000-0  15039-3 0  9990
2 43180  97.4018   5.8196 0001847  89.5417 270.6031 15.22301646342648
1 43180U 18014A   24096.80248533  .00003521  00000-0  15589-3 0  9996
2 43180  97.4017   5.6901 0001841  89.5475 270.5973 15.22300975342623
1 43180U 18014A   24096.53955681  .00003591  00000-0  15893-3 0  9990
2 43180  97.4017   5.4313 0001841  89.6663 270.4785 15.22298865342587
1 43180U 18014A   24096.21089573  .00003665  00000-0  16214-3 0  9993
2 43180  97.4016   5.1077 0001861  89.5802 270.5648 15.22296418342532
1 43180U 18014A   24095.94796640  .00003661  00000-0  16200-3 0  9993
2 43180  97.4016   4.8489 0001854  89.9293 270.2156 15.22294325342496
1 43180U 18014A   24095.81650147  .00003641  00000-0  16112-3 0  9990
2 43180  97.4015   4.7196 0001847  89.4677 270.6771 15.22293291342478
1 43180U 18014A   24095.55357175  .00003539  00000-0  15670-3 0  9990
2 43180  97.4015   4.4607 0001857  89.5973 270.5477 15.22290910342436
1 43180U 18014A   24095.48783922  .00003608  00000-0  15970-3 0  9995
2 43180  97.4015   4.3960 0001858  89.6064 270.5386 15.22290447342423
1 43180U 18014A   24095.15917624  .00003510  00000-0  15545-3 0  9997
2 43180  97.4015   4.0724 0001862  89.2686 270.8764 15.22287963342375
1 43180U 18014A   24094.89624531  .00003934  00000-0  17387-3 0  9995
2 43180  97.4014   3.8136 0001860  89.3280 270.8170 15.22287069342331
1 43180U 18014A   24094.83051258  .00003898  00000-0  17231-3 0  9996
2 43180  97.4014   3.7489 0001860  89.2838 270.8611 15.22286515342323
1 43180U 18014A   24094.56758153  .00003973  00000-0  17561-3 0  9994
2 43180  97.4014   3.4900 0001863  89.3132 270.8318 15.22284352342285
1 43180U 18014A   24094.50184868  .00003957  00000-0  17492-3 0  9999
2 43180  97.4014   3.4253 0001864  88.9241 271.2208 15.22283805342277
1 43180U 18014A   24094.17318404  .00004032  00000-0  17819-3 0  9995
2 43180  97.4013   3.1018 0001863  88.6220 271.5230 15.22281556342229
1 43180U 18014A   24093.91025195  .00004188  00000-0  18496-3 0  9992
2 43180  97.4013   2.8430 0001863  88.7748 271.3702 15.22279712342187
1 43180U 18014A   24093.84451880  .00004324  00000-0  19084-3 0  9994
2 43180  97.4012   2.7783 0001862  88.9782 271.1668 15.22279476342170
1 43180U 18014A   24093.58158654  .00004175  00000-0  18440-3 0  9997
2 43180  97.4012   2.5195 0001865  88.8102 271.3348 15.22276770342130
1 43180U 18014A   24093.51585336  .00004194  00000-0  18524-3 0  9995
2 43180  97.4012   2.4548 0001863  88.7029 271.4421 15.22276185342128
1 43180U 18014A   24093.18718713  .00004405  00000-0  19441-3 0  9999
2 43180  97.4012   2.1313 0001852  88.6392 271.5057 15.22273669342079
1 43180U 18014A   24092.85852019  .00004574  00000-0  20177-3 0  9995
2 43180  97.4011   1.8078 0001827  88.8209 271.3237 15.22271075342025
1 43180U 18014A   24092.59558630  .00004717  00000-0  20798-3 0  9996
2 43180  97.4011   1.5490 0001844  89.1904 270.9543 15.22269071341987
1 43180U 18014A   24092.52985281  .00004763  00000-0  20999-3 0  9999
2 43180  97.4011   1.4843 0001842  89.0949 271.0498 15.22268419341979
1 43180U 18014A   24092.20118500  .00004717  00000-0  20800-3 0  9996
2 43180  97.4011   1.1608 0001843  88.9973 271.1475 15.22264858341925
1 43180U 18014A   24091.93825018  .00004892  00000-0  21563-3 0  9995
2 43180  97.4011   0.9021 0001853  89.5437 270.6011 15.22262325341886
1 43180U 18014A   24091.80678253  .00004958  00000-0  21849-3 0  9998
2 43180  97.4011   0.7727 0001847  89.6322 270.5126 15.22261234341866
1 43180U 18014A   24091.54384708  .00005125  00000-0  22579-3 0  9996
2 43180  97.4011   0.5140 0001828  89.4775 270.6671 15.22258478341820
1 43180U 18014A   24091.54384708  .00005125  00000-0  22579-3 0  9996
2 43180  97.4011   0.5140 0001828  89.4775 270.6671 15.22258478341820
1 43180U 18014A   24091.21517710  .00007027  00000-0  30839-3 0  9992
2 43180  97.4013   0.1905 0001832  89.0489 271.0957 15.22258953341774
1 43180U 18014A   24090.95224089  .00006641  00000-0  29167-3 0  9999
2 43180  97.4013 359.9317 0001824  89.3107 270.8339 15.22255152341732
1 43180U 18014A   24090.88650675  .00006723  00000-0  29524-3 0  9993
2 43180  97.4013 359.8670 0001822  89.5971 270.5474 15.22253863341725
1 43180U 18014A   24090.55783481  .00005531  00000-0  24347-3 0  9993
2 43180  97.4014 359.5435 0001835  89.5757 270.5690 15.22248334341679
1 43180U 18014A   24090.49210077  .00006269  00000-0  27556-3 0  9996
2 43180  97.4014 359.4788 0001832  89.4317 270.7129 15.22248475341661
1 43180U 18014A   24090.16342815  .00005656  00000-0  24897-3 0  9990
2 43180  97.4015 359.1553 0001834  88.5361 271.6086 15.22244113341612
1 43180U 18014A   24089.96622417  .00005605  00000-0  24676-3 0  9994
2 43180  97.4015 358.9611 0001832  88.6977 271.4469 15.22241964341586
1 43180U 18014A   24089.83475455  .00005760  00000-0  25351-3 0  9991
2 43180  97.4016 358.8317 0001830  88.9690 271.1756 15.22241081341566
1 43180U 18014A   24089.57181573  .00006301  00000-0  27704-3 0  9993
2 43180  97.4017 358.5729 0001843  88.8195 271.3252 15.22239011341523
1 43180U 18014A   24089.50608086  .00006250  00000-0  27482-3 0  9995
2 43180  97.4017 358.5082 0001844  88.7123 271.4325 15.22238169341510
1 43180U 18014A   24089.17740562  .00005557  00000-0  24474-3 0  9991
2 43180  97.4018 358.1847 0001848  88.4258 271.7190 15.22233626341466
1 43180U 18014A   24088.98020042  .00005097  00000-0  22475-3 0  9991
2 43180  97.4018 357.9906 0001843  88.5060 271.6388 15.22230736341430
1 43180U 18014A   24088.84872993  .00005342  00000-0  23539-3 0  9991
2 43180  97.4019 357.8612 0001838  88.6785 271.4661 15.22229924341410
1 43180U 18014A   24088.58578918  .00005098  00000-0  22482-3 0  9996
2 43180  97.4020 357.6023 0001833  88.7070 271.4377 15.22226396341378
1 43180U 18014A   24088.52005380  .00005169  00000-0  22790-3 0  9999
2 43180  97.4020 357.5376 0001831  88.6345 271.5101 15.22225808341362
1 43180U 18014A   24088.19137670  .00005059  00000-0  22316-3 0  9992
2 43180  97.4021 357.2141 0001826  88.0726 272.0719 15.22222112341312
